[
    {
        "Altitude(m)": 612502.2386925519,
        "Argument of Periapsis(deg)": 0.0,
        "Eccentricity": 0.0,
        "Inclination(deg)": 60.0,
        "Latitude(deg)": -28.13611578360262,
        "Longitude(deg)": -137.851798230643,
        "Mean Anomaly(deg)": -32.72730000000006,
        "RAAN(deg)": 340.00000000000006,
        "Satellite Name": "Test1 1516",
        "Satellite Number": 1516,
        "Semi-Major Axis(m)": 6980739.136638005,
        "Time(s)": 0
    },
    {
        "Altitude(m)": 612308.6862143291,
        "Argument of Periapsis(deg)": 0.00010418945913296404,
        "Eccentricity": 0.0,
        "Inclination(deg)": 60.0,
        "Latitude(deg)": -27.62317165339541,
        "Longitude(deg)": -137.498322604147,
        "Mean Anomaly(deg)": -32.10719385453821,
        "RAAN(deg)": 339.99957995086027,
        "Satellite Name": "Test1 1516",
        "Satellite Number": 1516,
        "Semi-Major Axis(m)": 6980739.136638005,
        "Time(s)": 10
    },
    {
        "Altitude(m)": 612116.1026191205,
        "Argument of Periapsis(deg)": 0.0002083789182659281,
        "Eccentricity": 0.0,
        "Inclination(deg)": 60.0,
        "Latitude(deg)": -27.109058650606347,
        "Longitude(deg)": -137.14849816486063,
        "Mean Anomaly(deg)": -31.487087709076356,
        "RAAN(deg)": 339.99915990172053,
        "Satellite Name": "Test1 1516",
        "Satellite Number": 1516,
        "Semi-Major Axis(m)": 6980739.136638005,
        "Time(s)": 20
    },
    {
        "Altitude(m)": 611924.5574937104,
        "Argument of Periapsis(deg)": 0.00031256837739889213,
        "Eccentricity": 0.0,
        "Inclination(deg)": 60.0,
        "Latitude(deg)": -26.593811090951167,
        "Longitude(deg)": -136.8022204957644,
        "Mean Anomaly(deg)": -30.866981563614555,
        "RAAN(deg)": 339.9987398525808,
        "Satellite Name": "Test1 1516",
        "Satellite Number": 1516,
        "Semi-Major Axis(m)": 6980739.136638005,
        "Time(s)": 30
    },
    {
        "Altitude(m)": 611734.1198182643,
        "Argument of Periapsis(deg)": 0.0004167578365318562,
        "Eccentricity": 0.0,
        "Inclination(deg)": 60.0,
        "Latitude(deg)": -26.077462440792967,
        "Longitude(deg)": -136.45938689744432,
        "Mean Anomaly(deg)": -30.2468754181527,
        "RAAN(deg)": 339.99831980344106,
        "Satellite Name": "Test1 1516",
        "Satellite Number": 1516,
        "Semi-Major Axis(m)": 6980739.136638005,
        "Time(s)": 40
    },
    {
        "Altitude(m)": 611544.8579358506,
        "Argument of Periapsis(deg)": 0.0005209472956648203,
        "Eccentricity": 0.0,
        "Inclination(deg)": 60.0,
        "Latitude(deg)": -25.560045349543262,
        "Longitude(deg)": -136.119897332833,
        "Mean Anomaly(deg)": -29.62676927269085,
        "RAAN(deg)": 339.99789975430133,
        "Satellite Name": "Test1 1516",
        "Satellite Number": 1516,
        "Semi-Major Axis(m)": 6980739.136638005,
        "Time(s)": 50
    },
    {
        "Altitude(m)": 611356.8395221912,
        "Argument of Periapsis(deg)": 0.0006251367547977843,
        "Eccentricity": 0.0,
        "Inclination(deg)": 60.0,
        "Latitude(deg)": -25.041591680961293,
        "Longitude(deg)": -135.7836538598305,
        "Mean Anomaly(deg)": -29.006663127228993,
        "RAAN(deg)": 339.99747970516154,
        "Satellite Name": "Test1 1516",
        "Satellite Number": 1516,
        "Semi-Major Axis(m)": 6980739.136638005,
        "Time(s)": 60
    },
    {
        "Altitude(m)": 611170.1315557398,
        "Argument of Periapsis(deg)": 0.0007293262139307483,
        "Eccentricity": 0.0,
        "Inclination(deg)": 60.0,
        "Latitude(deg)": -24.522132543387322,
        "Longitude(deg)": -135.45056006473777,
        "Mean Anomaly(deg)": -28.386556981767193,
        "RAAN(deg)": 339.99705965602186,
        "Satellite Name": "Test1 1516",
        "Satellite Number": 1516,
        "Semi-Major Axis(m)": 6980739.136638005,
        "Time(s)": 70
    },
    {
        "Altitude(m)": 610984.8002880678,
        "Argument of Periapsis(deg)": 0.0008335156730637124,
        "Eccentricity": 0.0,
        "Inclination(deg)": 60.0,
        "Latitude(deg)": -24.001698318945028,
        "Longitude(deg)": -135.12052200942819,
        "Mean Anomaly(deg)": -27.76645083630534,
        "RAAN(deg)": 339.9966396068821,
        "Satellite Name": "Test1 1516",
        "Satellite Number": 1516,
        "Semi-Major Axis(m)": 6980739.136638005,
        "Time(s)": 80
    },
    {
        "Altitude(m)": 610800.911214578,
        "Argument of Periapsis(deg)": 0.0009377051321966765,
        "Eccentricity": 0.0,
        "Inclination(deg)": 60.0,
        "Latitude(deg)": -23.480318691754608,
        "Longitude(deg)": -134.7934476665501,
        "Mean Anomaly(deg)": -27.146344690843485,
        "RAAN(deg)": 339.99621955774234,
        "Satellite Name": "Test1 1516",
        "Satellite Number": 1516,
        "Semi-Major Axis(m)": 6980739.136638005,
        "Time(s)": 90
    },
    {
        "Altitude(m)": 610618.5290455694,
        "Argument of Periapsis(deg)": 0.0010418945913296407,
        "Eccentricity": 0.0,
        "Inclination(deg)": 60.0,
        "Latitude(deg)": -22.958022675189795,
        "Longitude(deg)": -134.46924635566776,
        "Mean Anomaly(deg)": -26.526238545381634,
        "RAAN(deg)": 339.99579950860254,
        "Satellite Name": "Test1 1516",
        "Satellite Number": 1516,
        "Semi-Major Axis(m)": 6980739.136638005,
        "Time(s)": 100
    },
    {
        "Altitude(m)": 610437.7176776656,
        "Argument of Periapsis(deg)": 0.0011460840504626045,
        "Eccentricity": 0.0,
        "Inclination(deg)": 60.0,
        "Latitude(deg)": -22.434838638212298,
        "Longitude(deg)": -134.147829693241,
        "Mean Anomaly(deg)": -25.90613239991983,
        "RAAN(deg)": 339.99537945946287,
        "Satellite Name": "Test1 1516",
        "Satellite Number": 1516,
        "Semi-Major Axis(m)": 6980739.136638005,
        "Time(s)": 110
    },
    {
        "Altitude(m)": 610258.5401655983,
        "Argument of Periapsis(deg)": 0.0012502735095955685,
        "Eccentricity": 0.0,
        "Inclination(deg)": 60.0,
        "Latitude(deg)": -21.910794330822267,
        "Longitude(deg)": -133.82911103071422,
        "Mean Anomaly(deg)": -25.28602625445798,
        "RAAN(deg)": 339.9949594103231,
        "Satellite Name": "Test1 1516",
        "Satellite Number": 1516,
        "Semi-Major Axis(m)": 6980739.136638005,
        "Time(s)": 120
    },
    {
        "Altitude(m)": 610081.0586944049,
        "Argument of Periapsis(deg)": 0.0013544629687285324,
        "Eccentricity": 0.0,
        "Inclination(deg)": 60.0,
        "Latitude(deg)": -21.385916908656633,
        "Longitude(deg)": -133.5130048936027,
        "Mean Anomaly(deg)": -24.66592010899623,
        "RAAN(deg)": 339.99453936118334,
        "Satellite Name": "Test1 1516",
        "Satellite Number": 1516,
        "Semi-Major Axis(m)": 6980739.136638005,
        "Time(s)": 130
    },
    {
        "Altitude(m)": 609905.3345520176,
        "Argument of Periapsis(deg)": 0.0014586524278614966,
        "Eccentricity": 0.0,
        "Inclination(deg)": 60.0,
        "Latitude(deg)": -20.860232956765124,
        "Longitude(deg)": -133.19942793445762,
        "Mean Anomaly(deg)": -24.045813963534375,
        "RAAN(deg)": 339.9941193120436,
        "Satellite Name": "Test1 1516",
        "Satellite Number": 1516,
        "Semi-Major Axis(m)": 6980739.136638005,
        "Time(s)": 140
    },
    {
        "Altitude(m)": 609731.4281022685,
        "Argument of Periapsis(deg)": 0.0015628418869944607,
        "Eccentricity": 0.0,
        "Inclination(deg)": 60.0,
        "Latitude(deg)": -20.333768512601715,
        "Longitude(deg)": -132.88829837396673,
        "Mean Anomaly(deg)": -23.425707818072574,
        "RAAN(deg)": 339.9936992629039,
        "Satellite Name": "Test1 1516",
        "Satellite Number": 1516,
        "Semi-Major Axis(m)": 6980739.136638005,
        "Time(s)": 150
    },
    {
        "Altitude(m)": 609559.3987583194,
        "Argument of Periapsis(deg)": 0.0016670313461274247,
        "Eccentricity": 0.0,
        "Inclination(deg)": 60.0,
        "Latitude(deg)": -19.806549088258777,
        "Longitude(deg)": -132.57953544306125,
        "Mean Anomaly(deg)": -22.80560167261072,
        "RAAN(deg)": 339.99327921376414,
        "Satellite Name": "Test1 1516",
        "Satellite Number": 1516,
        "Semi-Major Axis(m)": 6980739.136638005,
        "Time(s)": 160
    },
    {
        "Altitude(m)": 609389.3049565674,
        "Argument of Periapsis(deg)": 0.0017712208052603888,
        "Eccentricity": 0.0,
        "Inclination(deg)": 60.0,
        "Latitude(deg)": -19.278599691973593,
        "Longitude(deg)": -132.2730603389006,
        "Mean Anomaly(deg)": -22.185495527148966,
        "RAAN(deg)": 339.9928591646244,
        "Satellite Name": "Test1 1516",
        "Satellite Number": 1516,
        "Semi-Major Axis(m)": 6980739.136638005,
        "Time(s)": 170
    },
    {
        "Altitude(m)": 609221.204130966,
        "Argument of Periapsis(deg)": 0.001875410264393353,
        "Eccentricity": 0.0,
        "Inclination(deg)": 60.0,
        "Latitude(deg)": -18.749944848939695,
        "Longitude(deg)": -131.9687956689772,
        "Mean Anomaly(deg)": -21.565389381687112,
        "RAAN(deg)": 339.9924391154846,
        "Satellite Name": "Test1 1516",
        "Satellite Number": 1516,
        "Semi-Major Axis(m)": 6980739.136638005,
        "Time(s)": 180
    },
    {
        "Altitude(m)": 609055.1526878431,
        "Argument of Periapsis(deg)": 0.0019795997235263173,
        "Eccentricity": 0.0,
        "Inclination(deg)": 60.0,
        "Latitude(deg)": -18.220608621451113,
        "Longitude(deg)": -131.66666489620562,
        "Mean Anomaly(deg)": -20.94528323622531,
        "RAAN(deg)": 339.99201906634494,
        "Satellite Name": "Test1 1516",
        "Satellite Number": 1516,
        "Semi-Major Axis(m)": 6980739.136638005,
        "Time(s)": 190
    }
]